[{"OBJECT_NAME":"STARLING 4","OBJECT_ID":"2023-100A","EPOCH":"2026-03-07T00:40:50.723040","MEAN_MOTION":15.06148396,"ECCENTRICITY":0.00078037,"INCLINATION":99.5115,"RA_OF_ASC_NODE":59.9711,"ARG_OF_PERICENTER":83.0949,"MEAN_ANOMALY":277.1159,"EPHEMERIS_TYPE":0,"CLASSIFICATION_TYPE":"U","NORAD_CAT_ID":57386,"ELEMENT_SET_NO":999,"REV_AT_EPOCH":14452,"BSTAR":5.567556e-6,"MEAN_MOTION_DOT":-9.0e-8,"MEAN_MOTION_DDOT":0},{"OBJECT_NAME":"OBJECT G","OBJECT_ID":"2024-205G","EPOCH":"2026-03-09T23:05:54.449664","MEAN_MOTION":15.09392775,"ECCENTRICITY":0.00211709,"INCLINATION":97.4199,"RA_OF_ASC_NODE":141.9686,"ARG_OF_PERICENTER":130.0324,"MEAN_ANOMALY":230.2768,"EPHEMERIS_TYPE":0,"CLASSIFICATION_TYPE":"U","NORAD_CAT_ID":61900,"ELEMENT_SET_NO":999,"REV_AT_EPOCH":7318,"BSTAR":0.00059967322,"MEAN_MOTION_DOT":9.576e-5,"MEAN_MOTION_DDOT":0}]
